CTC2_L_00024016-03
1 10062U 22192US  26075.70040509  .00000000  00000+0  00000-0 0  9999
2 10062  60.0000 180.0000 0000000   0.0000   0.0000 15.69614517    12
CTC2_L_00024016-04
1 10063U 22727UE  26075.70040509  .00000000  00000+0  00000-0 0  9994
2 10063  60.0000 180.0000 0000000   0.0000  90.0000 15.69614517    12
CTC2_L_00024017-01
1 10064U 24097IE  26075.70040509  .00000000  00000+0  00000-0 0  9997
2 10064  60.0000 192.0000 0000000   0.0000 192.0000 15.69614517    19
CTC2_L_00024017-02
1 10065U 24858ZZ  26075.70040509  .00000000  00000+0  00000-0 0  9993
2 10065  60.0000 192.0000 0000000   0.0000 282.0000 15.69614517    10
CTC2_L_00024017-03
1 10066U 25165CS  26075.70040509  .00000000  00000+0  00000-0 0  9996
2 10066  60.0000 192.0000 0000000   0.0000  12.0000 15.69614517    12
CTC2_L_00024017-04
1 10067U 26984SX  26075.70040509  .00000000  00000+0  00000-0 0  9997
2 10067  60.0000 192.0000 0000000   0.0000 102.0000 15.69614517    13
CTC2_L_00024018-01
1 10068U 23761CV  26075.70040509  .00000000  00000+0  00000-0 0  9998
2 10068  60.0000 204.0000 0000000   0.0000 204.0000 15.69614517    11
CTC2_L_00024018-02
1 10069U 24022LZ  26075.70040509  .00000000  00000+0  00000-0 0  9990
2 10069  60.0000 204.0000 0000000   0.0000 294.0000 15.69614517    11
CTC2_L_00024018-03
1 10070U 25557JU  26075.70040509  .00000000  00000+0  00000-0 0  9996
2 10070  60.0000 204.0000 0000000   0.0000  24.0000 15.69614517    14
CTC2_L_00024018-04
1 10071U 26139W   26075.70040509  .00000000  00000+0  00000-0 0  9994
2 10071  60.0000 204.0000 0000000   0.0000 114.0000 15.69614517    15
CTC2_L_00024019-01
1 10072U 24346GW  26075.70040509  .00000000  00000+0  00000-0 0  9993
2 10072  60.0000 216.0000 0000000   0.0000 216.0000 15.69614517    12
CTC2_L_00024019-02
1 10073U 25374TQ  26075.70040509  .00000000  00000+0  00000-0 0  9996
2 10073  60.0000 216.0000 0000000   0.0000 306.0000 15.69614517    13
CTC2_L_00024019-03
1 10074U 23532NG  26075.70040509  .00000000  00000+0  00000-0 0  9991
2 10074  60.0000 216.0000 0000000   0.0000  36.0000 15.69614517    14
CTC2_L_00024019-04
1 10075U 24757PW  26075.70040509  .00000000  00000+0  00000-0 0  9992
2 10075  60.0000 216.0000 0000000   0.0000 126.0000 15.69614517    15
CTC2_L_00024020-01
1 10076U 24870JC  26075.70040509  .00000000  00000+0  00000-0 0  9999
2 10076  60.0000 228.0000 0000000   0.0000 228.0000 15.69614517    12
CTC2_L_00024020-02
1 10077U 26744RN  26075.70040509  .00000000  00000+0  00000-0 0  9992
2 10077  60.0000 228.0000 0000000   0.0000 318.0000 15.69614517    13
CTC2_L_00024020-03
1 10078U 22198VD  26075.70040509  .00000000  00000+0  00000-0 0  9992
2 10078  60.0000 228.0000 0000000   0.0000  48.0000 15.69614517    14
CTC2_L_00024020-04
1 10079U 22871NW  26075.70040509  .00000000  00000+0  00000-0 0  9991
2 10079  60.0000 228.0000 0000000   0.0000 138.0000 15.69614517    15
CTC2_L_00024021-01
1 10080U 23428IQ  26075.70040509  .00000000  00000+0  00000-0 0  9992
2 10080  60.0000 240.0000 0000000   0.0000 240.0000 15.69614517    15
CTC2_L_00024021-02
1 10081U 25900AJ  26075.70040509  .00000000  00000+0  00000-0 0  9990
2 10081  60.0000 240.0000 0000000   0.0000 330.0000 15.69614517    16
CTC2_L_00024021-03
1 10082U 24243NZ  26075.70040509  .00000000  00000+0  00000-0 0  9990
2 10082  60.0000 240.0000 0000000   0.0000  60.0000 15.69614517    17
CTC2_L_00024021-04
1 10083U 25270EC  26075.70040509  .00000000  00000+0  00000-0 0  9992
2 10083  60.0000 240.0000 0000000   0.0000 150.0000 15.69614517    18
CTC2_L_00024022-01
1 10084U 22964HR  26075.70040509  .00000000  00000+0  00000-0 0  9990
2 10084  60.0000 252.0000 0000000   0.0000 252.0000 15.69614517    15
CTC2_L_00024022-02
1 10085U 24121BT  26075.70040509  .00000000  00000+0  00000-0 0  9998
2 10085  60.0000 252.0000 0000000   0.0000 342.0000 15.69614517    16
CTC2_L_00024022-03
1 10086U 23915RX  26075.70040509  .00000000  00000+0  00000-0 0  9999
2 10086  60.0000 252.0000 0000000   0.0000  72.0000 15.69614517    17
CTC2_L_00024022-04
1 10087U 26944FE  26075.70040509  .00000000  00000+0  00000-0 0  9995
2 10087  60.0000 252.0000 0000000   0.0000 162.0000 15.69614517    18
CTC2_L_00024023-01
1 10088U 26393HS  26075.70040509  .00000000  00000+0  00000-0 0  9994
2 10088  60.0000 264.0000 0000000   0.0000 264.0000 15.69614517    15
CTC2_L_00024023-02
1 10089U 22849HO  26075.70040509  .00000000  00000+0  00000-0 0  9997
2 10089  60.0000 264.0000 0000000   0.0000 354.0000 15.69614517    16
CTC2_L_00024023-03
1 10090U 26667WT  26075.70040509  .00000000  00000+0  00000-0 0  9991
2 10090  60.0000 264.0000 0000000   0.0000  84.0000 15.69614517    18
CTC2_L_00024023-04
1 10091U 25389JF  26075.70040509  .00000000  00000+0  00000-0 0  9992
2 10091  60.0000 264.0000 0000000   0.0000 174.0000 15.69614517    19
CTC2_L_00024024-01
1 10092U 25965VV  26075.70040509  .00000000  00000+0  00000-0 0  9993
2 10092  60.0000 276.0000 0000000   0.0000 276.0000 15.69614517    16
CTC2_L_00024024-02
1 10093U 26083DB  26075.70040509  .00000000  00000+0  00000-0 0  9996
2 10093  60.0000 276.0000 0000000   0.0000   6.0000 15.69614517    18
CTC2_L_00024024-03
1 10094U 25485GO  26075.70040509  .00000000  00000+0  00000-0 0  9992
2 10094  60.0000 276.0000 0000000   0.0000  96.0000 15.69614517    18
CTC2_L_00024024-04
1 10095U 25382UM  26075.70040509  .00000000  00000+0  00000-0 0  9999
2 10095  60.0000 276.0000 0000000   0.0000 186.0000 15.69614517    19
CTC2_L_00024025-01
1 10096U 26945T   26075.70040509  .00000000  00000+0  00000-0 0  9996
2 10096  60.0000 288.0000 0000000   0.0000 288.0000 15.69614517    16
CTC2_L_00024025-02
1 10097U 26226JZ  26075.70040509  .00000000  00000+0  00000-0 0  9999
2 10097  60.0000 288.0000 0000000   0.0000  18.0000 15.69614517    18
CTC2_L_00024025-03
1 10098U 26878VD  26075.70040509  .00000000  00000+0  00000-0 0  9993
2 10098  60.0000 288.0000 0000000   0.0000 108.0000 15.69614517    19
CTC2_L_00024025-04
1 10099U 26784PV  26075.70040509  .00000000  00000+0  00000-0 0  9990
2 10099  60.0000 288.0000 0000000   0.0000 198.0000 15.69614517    19
CTC2_L_00024026-01
1 10100U 23108W   26075.70040509  .00000000  00000+0  00000-0 0  9990
2 10100  60.0000 300.0000 0000000   0.0000 300.0000 15.69614517    12
CTC2_L_00024026-02
1 10101U 25982HT  26075.70040509  .00000000  00000+0  00000-0 0  9993
2 10101  60.0000 300.0000 0000000   0.0000  30.0000 15.69614517    13
CTC2_L_00024026-03
1 10102U 24023YU  26075.70040509  .00000000  00000+0  00000-0 0  9999
2 10102  60.0000 300.0000 0000000   0.0000 120.0000 15.69614517    14
CTC2_L_00024026-04
1 10103U 23159TO  26075.70040509  .00000000  00000+0  00000-0 0  9999
2 10103  60.0000 300.0000 0000000   0.0000 210.0000 15.69614517    15
CTC2_L_00024027-01
1 10104U 22573DX  26075.70040509  .00000000  00000+0  00000-0 0  9999
2 10104  60.0000 312.0000 0000000   0.0000 312.0000 15.69614517    12
CTC2_L_00024027-02
1 10105U 26214RD  26075.70040509  .00000000  00000+0  00000-0 0  9996
2 10105  60.0000 312.0000 0000000   0.0000  42.0000 15.69614517    13
CTC2_L_00024027-03
1 10106U 25690KM  26075.70040509  .00000000  00000+0  00000-0 0  9994
2 10106  60.0000 312.0000 0000000   0.0000 132.0000 15.69614517    14
CTC2_L_00024027-04
1 10107U 24448ZH  26075.70040509  .00000000  00000+0  00000-0 0  9995
2 10107  60.0000 312.0000 0000000   0.0000 222.0000 15.69614517    15
CTC2_L_00024028-01
1 10108U 22920MZ  26075.70040509  .00000000  00000+0  00000-0 0  9999
2 10108  60.0000 324.0000 0000000   0.0000 324.0000 15.69614517    12
CTC2_L_00024028-02
1 10109U 24143RS  26075.70040509  .00000000  00000+0  00000-0 0  9999
2 10109  60.0000 324.0000 0000000   0.0000  54.0000 15.69614517    13
CTC2_L_00024028-03
1 10110U 23856TW  26075.70040509  .00000000  00000+0  00000-0 0  9991
2 10110  60.0000 324.0000 0000000   0.0000 144.0000 15.69614517    15
CTC2_L_00024028-04
1 10111U 22256CO  26075.70040509  .00000000  00000+0  00000-0 0  9995
2 10111  60.0000 324.0000 0000000   0.0000 234.0000 15.69614517    16
CTC2_L_00024029-01
1 10112U 24732GB  26075.70040509  .00000000  00000+0  00000-0 0  9997
2 10112  60.0000 336.0000 0000000   0.0000 336.0000 15.69614517    13
CTC2_L_00024029-02
1 10113U 24385PQ  26075.70040509  .00000000  00000+0  00000-0 0  9992
2 10113  60.0000 336.0000 0000000   0.0000  66.0000 15.69614517    14
CTC2_L_00024029-03
1 10114U 23904TF  26075.70040509  .00000000  00000+0  00000-0 0  9999
2 10114  60.0000 336.0000 0000000   0.0000 156.0000 15.69614517    15
CTC2_L_00024029-04
1 10115U 25286LK  26075.70040509  .00000000  00000+0  00000-0 0  9995
2 10115  60.0000 336.0000 0000000   0.0000 246.0000 15.69614517    16
CTC2_L_00024030-01
1 10116U 25087GL  26075.70040509  .00000000  00000+0  00000-0 0  9995
2 10116  60.0000 348.0000 0000000   0.0000 348.0000 15.69614517    13
CTC2_L_00024030-02
1 10117U 23436MI  26075.70040509  .00000000  00000+0  00000-0 0  9992
2 10117  60.0000 348.0000 0000000   0.0000  78.0000 15.69614517    14
CTC2_L_00024030-03
1 10118U 26115LS  26075.70040509  .00000000  00000+0  00000-0 0  9990
2 10118  60.0000 348.0000 0000000   0.0000 168.0000 15.69614517    15
CTC2_L_00024030-04
1 10119U 23622FB  26075.70040509  .00000000  00000+0  00000-0 0  9991
2 10119  60.0000 348.0000 0000000   0.0000 258.0000 15.69614517    16
